AMC-1 (GE-1)            
1 24315U 96054A   22344.33787633  .00000076  00000+0  00000+0 0  9995
2 24315   6.0351  71.6417 0003806 190.8996 167.2363  1.00272039 96149
AMC-3 (GE-3)            
1 24936U 97050A   22344.25886021 -.00000248  00000+0  00000+0 0  9995
2 24936   4.9743  77.8153 0003400 184.4384 197.9038  1.00272375 92569
ASTRA 1G                
1 25071U 97076A   22343.88762826  .00000126  00000+0  00000+0 0  9992
2 25071   6.6456  66.9256 0004010 194.4378 156.1759  1.00271585 91642
ASTRA 2A                
1 25462U 98050A   22344.53136568  .00000083  00000+0  00000+0 0  9992
2 25462   3.8435  83.6677 0003396 174.5626  69.5008  1.00270141 88867
AMC-4 (GE-4)            
1 25954U 99060A   22344.15997015  .00000102  00000+0  00000+0 0  9992
2 25954   1.9629  89.8151 0003307 173.2847  98.4687  1.00272265 84606
NSS-11 (AAP-1)          
1 26554U 00059A   22343.81005226  .00000041  00000+0  00000+0 0  9997
2 26554   0.0143 338.9913 0002498 289.4875 277.6836  1.00271829 81282
AMC-6 (GE-6)            
1 26580U 00067A   22344.43646990  .00000120  00000+0  00000+0 0  9991
2 26580   0.0166 325.9897 0003241 303.9303 187.3526  1.00268723 81101
ASTRA 2D                
1 26638U 00081A   22343.37618924  .00000138  00000+0  00000+0 0  9998
2 26638   7.6622  59.1017 0001917 206.4554 331.6667  1.00269292 40015
AMC-8 (GE-8)            
1 26639U 00081B   22343.80944208 -.00000176  00000+0  00000+0 0  9997
2 26639   2.8013  87.9322 0004619 201.5708 253.6386  0.99153824 80389
ASTRA 2C                
1 26853U 01025A   22343.76051937 -.00000247  00000+0  00000+0 0  9996
2 26853   4.9973  77.6286 0003422 188.1837  14.0011  1.00271820 78688
ASTRA 3A                
1 27400U 02015B   22343.45207346 -.00000153  00000+0  00000+0 0  9994
2 27400   7.7704  58.0321 0000794 270.9942  91.3867  0.99090161 75823
NSS-7                   
1 27414U 02019A   22343.14424328 -.00000147  00000+0  00000+0 0  9993
2 27414   6.3068  69.8557 0002501 194.5493 205.3877  1.00271714 75676
NSS-6                   
1 27603U 02057A   22343.74116876  .00000122  00000+0  00000+0 0  9999
2 27603   2.0530  89.6012 0004003 173.7389 272.4578  1.00270107 73149
AMC-11 (GE-11)          
1 28252U 04017A   22344.33777234  .00000085  00000+0  00000+0 0  9993
2 28252   0.0646 292.7288 0002982 338.3548 158.5692  1.00269813 67829
AMC-15                  
1 28446U 04041A   22344.47888580 -.00000073  00000+0  00000+0 0  9995
2 28446   0.0168 343.0306 0002716 284.5008 239.0134  1.00272489 66460
NSS-10 (AMC-12)         
1 28526U 05003A   22344.08868861 -.00000237  00000+0  00000+0 0  9992
2 28526   3.2199  85.4562 0003177 168.6091 179.2174  1.00271355 65431
ASTRA 1KR               
1 29055U 06012A   22344.18104810  .00000136  00000+0  00000+0 0  9996
2 29055   0.0143 301.8666 0005460 304.7188 276.6679  1.00272339 60867
AMC-18                  
1 29644U 06054B   22344.25248365 -.00000200  00000+0  00000+0 0  9991
2 29644   0.0244  44.9870 0002916 217.1497 184.7259  1.00271652 58641
ASTRA 1L                
1 31306U 07016A   22344.49602027  .00000136  00000+0  00000+0 0  9990
2 31306   0.0393 335.6715 0005416 302.1278 359.1513  1.00271449 57152
ASTRA 4A (SIRIUS 4)     
1 32299U 07057A   22343.27374403  .00000048  00000+0  00000+0 0  9998
2 32299   0.0321  54.9916 0003148 205.5200 280.8485  1.00271479 38778
AMC-21                  
1 33275U 08038B   22344.19580948  .00000052  00000+0  00000+0 0  9993
2 33275   0.0362  57.7317 0002770 208.5894 118.1802  1.00271989 52583
ASTRA 1M                
1 33436U 08057A   22343.88773237  .00000135  00000+0  00000+0 0  9995
2 33436   0.0229  64.6808 0002969 142.4714 210.2174  1.00270313 51599
CIEL-2                  
1 33453U 08063A   22344.26381958  .00000074  00000+0  00000+0 0  9991
2 33453   0.0338 102.8121 0003594 169.4198 132.8751  1.00272729 51247
NSS-9                   
1 33749U 09008A   22343.81144689  .00000087  00000+0  00000+0 0  9991
2 33749   0.0169 339.1190 0002472 277.5925 297.0017  1.00271391 50670
SES-7 (PROTOSTAR 2)     
1 34941U 09027A   22344.41924347 -.00000329  00000+0  00000+0 0  9991
2 34941   0.0619  87.6582 0002579 177.5246  73.1378  1.00271405 49721
NSS-12                  
1 36032U 09058A   22344.02948819  .00000087  00000+0  00000+0 0  9995
2 36032   0.0153 327.1152 0003181 297.2614 241.9892  1.00272357 48026
SES-1                   
1 36516U 10016A   22344.24232446 -.00000099  00000+0  00000+0 0  9998
2 36516   0.0139 333.4179 0002684 288.6644 163.1151  1.00270857 46259
ASTRA 3B                
1 36581U 10021A   22344.49697907  .00000153  00000+0  00000+0 0  9990
2 36581   0.0545 325.9979 0003729 281.6740  33.9454  1.00271836 45760
SES-3                   
1 37748U 11035A   22344.32271863 -.00000086  00000+0  00000+0 0  9999
2 37748   0.0307  42.0844 0003050 210.9137 199.2106  1.00270823 41819
ASTRA 1N                
1 37775U 11041A   22344.18104810  .00000135  00000+0  00000+0 0  9991
2 37775   0.0505  19.6176 0001870 305.5019 198.1504  1.00270177 41514
SES-2                   
1 37809U 11049A   22343.51299299 -.00000180  00000+0  00000+0 0  9990
2 37809   0.0116 343.6953 0002982 282.1871 270.0259  1.00269997 41069
QUETZSAT 1              
1 37826U 11054A   22344.34493517 -.00000226  00000+0  00000+0 0  9997
2 37826   0.0141 337.6359 0002953 275.1808 233.4158  1.00272658 41215
SES-4                   
1 38087U 12007A   22343.69007667 -.00000153  00000+0  00000+0 0  9999
2 38087   0.0146  10.0595 0002112 252.1482  42.6335  1.00269974 39596
SES-5                   
1 38652U 12036A   22343.27383119  .00000050  00000+0  00000+0 0  9997
2 38652   0.0540 297.8043 0002355 315.5592 288.1965  1.00272125 31590
ASTRA 2F                
1 38778U 12051A   22343.49365117  .00000166  00000+0  00000+0 0  9993
2 38778   0.0618 243.6096 0004322 359.6212  40.9049  1.00271728 28238
SES-6                   
1 39172U 13026A   22344.48425302 -.00000245  00000+0  00000+0 0  9997
2 39172   0.0171 345.5333 0002517 278.6894 308.8028  1.00273196 34834
O3B FM5                 
1 39188U 13031A   22343.18156203 -.00000021  00000+0  00000+0 0  9999
2 39188   0.0658   8.9175 0002841 254.3895  96.6634  5.00115420172700
O3B FM4                 
1 39189U 13031B   22343.43739494 -.00000021  00000+0  00000+0 0  9997
2 39189   0.0414 353.9585 0002777 269.3341  96.6785  5.00115918172720
O3B FM2                 
1 39190U 13031C   22343.52889585 -.00000021  00000+0  00000+0 0  9996
2 39190   0.0382 348.2476 0002775 273.6927  98.0309  5.00115180172783
O3B PFM                 
1 39191U 13031D   22344.15479661 -.00000021  00000+0  00000+0 0  9997
2 39191   0.0570   6.7765 0002754 252.4718 100.7233  5.00115820172834
ASTRA 2E                
1 39285U 13056A   22344.15743753  .00000166  00000+0  00000+0 0  9993
2 39285   0.0606 340.3536 0002147 277.7223 265.9399  1.00271135 33705
SES-8                   
1 39460U 13071A   22344.62262199 -.00000254  00000+0  00000+0 0  9996
2 39460   0.0200 273.4712 0000981 314.1496 170.8404  1.00273371 32999
ASTRA 5B                
1 39617U 14011B   22344.37549434  .00000170  00000+0  00000+0 0  9993
2 39617   0.0507 318.3958 0003889 286.9814   0.3983  1.00269421 31982
O3B FM3                 
1 40079U 14038A   22343.60993869 -.00000021  00000+0  00000+0 0  9992
2 40079   0.0481 359.4005 0004539 232.4920 128.0693  5.00116131153819
O3B FM7                 
1 40080U 14038B   22344.35557642 -.00000021  00000+0  00000+0 0  9992
2 40080   0.0474 353.6887 0002793 305.1884  61.0975  5.00115623153885
O3B FM6                 
1 40081U 14038C   22343.38252141 -.00000021  00000+0  00000+0 0  9991
2 40081   0.0471 359.3131 0002819 259.4464 101.2115  5.00115381153505
O3B FM8                 
1 40082U 14038D   22342.63682897 -.00000021  00000+0  00000+0 0  9994
2 40082   0.0440 358.2757 0002678 257.8413 103.8560  5.00115732153572
O3B FM10                
1 40348U 14083A   22343.26264376 -.00000021  00000+0  00000+0 0  9997
2 40348   0.0520   8.1644 0002733 250.4149 101.3928  5.00115222145564
O3B FM11                
1 40349U 14083B   22343.07617046 -.00000022  00000+0  00000+0 0  9994
2 40349   0.0550   4.2928 0002990 267.7304  87.9453  5.00115474145571
O3B FM12                
1 40350U 14083C   22343.50318006 -.00000022  00000+0  00000+0 0  9998
2 40350   0.0541   4.1022 0002925 256.1399  99.7276  5.00115308145593
O3B FM9                 
1 40351U 14083D   22343.52992869 -.00000022  00000+0  00000+0 0  9996
2 40351   0.0560   3.5047 0002741 256.8739  99.5931  5.00116176145743
ASTRA 2G                
1 40364U 14089A   22343.89910707  .00000166  00000+0  00000+0 0  9995
2 40364   0.0337   3.6745 0000995   6.1275  60.7187  1.00272532 29137
SES-9                   
1 41380U 16013A   22344.29979954 -.00000329  00000+0  00000+0 0  9999
2 41380   0.0126 317.3897 0000238 275.2405  62.6102  1.00270719 24867
SES-10                  
1 42432U 17017A   22344.37202023 -.00000257  00000+0  00000+0 0  9998
2 42432   0.0150  30.4688 0003128 236.6532 238.9971  1.00272246 20840
SES-15                  
1 42709U 17026A   22344.44841999  .00000076  00000+0  00000+0 0  9992
2 42709   0.0179   0.5881 0000572 275.4638 195.3818  1.00267859 21301
SES-11 (ECHOSTAR 105)   
1 42967U 17063A   22344.47888568 -.00000074  00000+0  00000+0 0  9994
2 42967   0.0133 342.6066 0003078 278.5774 245.4577  1.00271771 18922
SES-14                  
1 43175U 18012B   22344.36090869 -.00000263  00000+0  00000+0 0  9998
2 43175   0.0127 325.7089 0001392 293.4135 262.3854  1.00273879 18161
O3B FM15                
1 43231U 18024A   22343.19609098 -.00000021  00000+0  00000+0 0  9996
2 43231   0.0503  11.5040 0003076 247.6070 100.8571  5.00116212 86695
O3B FM16                
1 43232U 18024B   22343.64928891 -.00000021  00000+0  00000+0 0  9992
2 43232   0.0496  16.2219 0003074 244.0849  99.6611  5.00116025 86872
O3B FM14                
1 43233U 18024C   22343.48913210 -.00000021  00000+0  00000+0 0  9994
2 43233   0.0487  17.6343 0002997 245.7584  96.5759  5.00115434 86628
O3B FM13                
1 43234U 18024D   22343.14288343 -.00000021  00000+0  00000+0 0  9990
2 43234   0.0598   8.8869 0003910 250.4500 100.6217  5.00115353 86732
SES-12                  
1 43488U 18049A   22344.39077150 -.00000254  00000+0  00000+0 0  9996
2 43488   0.0309  53.0903 0002833 215.1824  46.5154  1.00271459 16539
O3B FM20                
1 44112U 19020A   22343.31593114 -.00000021  00000+0  00000+0 0  9997
2 44112   0.0513   7.9118 0003380 255.7840  96.2684  5.00115522 67328
O3B FM19                
1 44113U 19020B   22343.14289120 -.00000021  00000+0  00000+0 0  9998
2 44113   0.0735  14.2551 0002462 274.3889  71.3320  5.00115396 67103
O3B FM17                
1 44114U 19020C   22343.22332481 -.00000021  00000+0  00000+0 0  9997
2 44114   0.0322  14.2181 0003199 244.6920 101.0566  5.00115700 67189
O3B FM18                
1 44115U 19020D   22343.16981580 -.00000021  00000+0  00000+0 0  9991
2 44115   0.0517   7.8381 0002976 249.8699 102.2614  5.00115843 67307
SES-17                  
1 49332U 21095A   22344.55067262 -.00000256  00000+0  00000+0 0  9998
2 49332   0.0152  25.3994 0001290 237.3279 307.6838  1.00269864  4957
SES-22                  
1 52933U 22071A   22343.52965920  .00000104  00000+0  00000+0 0  9999
2 52933   0.0154 299.9615 0002925 316.8625 237.1093  1.00272726  1670
